IRIDIUM 136             
1 42962U 17061H   23335.77410292  .00000721  00000+0  25048-3 0  9997
2 42962  86.3987  53.2375 0001922 103.8394 256.3016 14.34218665321765
